OBJECT_NAME,OBJECT_ID,EPOCH,MEAN_MOTION,ECCENTRICITY,INCLINATION,RA_OF_ASC_NODE,ARG_OF_PERICENTER,MEAN_ANOMALY,EPHEMERIS_TYPE,CLASSIFICATION_TYPE,NORAD_CAT_ID,ELEMENT_SET_NO,REV_AT_EPOCH,BSTAR,MEAN_MOTION_DOT,MEAN_MOTION_DDOT
AISTECHSAT 2,2018-099L,2026-06-28T17:01:57.461376,15.15560382,.00031165,97.4289,227.4916,248.0546,112.0355,0,U,43768,999,41402,.24401103E-3,.4563E-4,0
FOX-1CLIFF (AO-95),2018-099N,2026-06-28T14:41:44.354688,15.26945463,.00070548,97.4385,239.8174,311.8599,48.2037,0,U,43770,999,41496,.38163646E-3,.10033E-3,0
RANGE-A,2018-099R,2026-06-28T14:47:24.060480,15.13480287,.00087923,97.3960,221.8609,313.5487,46.5014,0,U,43773,999,41422,.22910738E-3,.4038E-4,0
SNUSAT-2,2018-099AA,2026-06-28T15:24:36.829152,15.22004633,.00088291,97.4059,232.8500,250.6133,109.4149,0,U,43782,999,41477,.33561615E-3,.7604E-4,0
SNUGLITE,2018-099AC,2026-06-29T09:29:22.616160,15.27436491,.0001964,97.3864,234.5563,209.2823,150.8306,0,U,43784,999,41518,.38067E-3,.10153E-3,0
ITASAT,2018-099AE,2026-06-28T16:20:02.671008,15.19194925,.00110557,97.4026,230.9633,317.1813,42.8560,0,U,43786,999,41465,.30212886E-3,.63E-4,0
EAGLET-I,2018-099AJ,2026-06-28T16:37:45.646752,15.13021160,.00097024,97.4225,229.0566,310.6127,49.4259,0,U,43790,999,41407,.23305473E-3,.4056E-4,0
ESEO,2018-099AL,2026-06-29T08:28:51.987072,15.04283751,.0010131,97.3970,217.2212,296.2697,63.7488,0,U,43792,999,41363,.87777E-4,.1165E-4,0
THEA,2018-099AQ,2026-06-28T16:10:27.154560,15.35394254,.00065158,97.4445,249.4798,233.7252,126.3390,0,U,43796,999,41445,.51017411E-3,.1749E-3,0
ASTROCAST 0.1,2018-099AS,2026-06-29T03:22:41.103264,15.50352390,.0005685,97.4378,259.0160,169.7871,190.3497,0,U,43798,999,41628,.62434E-3,.35458E-3,0
JY1SAT (JO-97),2018-099AX,2026-06-28T15:26:00.465216,15.34009895,.0005256,97.4130,242.5189,213.1026,146.9889,0,U,43803,999,41538,.48154504E-3,.15787E-3,0
SUOMI-100,2018-099AY,2026-06-28T22:11:02.533632,15.28680106,.00089735,97.4183,240.2750,230.8093,129.2350,0,U,43804,999,41521,.42476264E-3,.1179E-3,0
CENTAURI-1,2018-099BD,2026-06-28T22:50:28.688352,15.16477453,.00124143,97.4218,231.4188,288.4026,71.5857,0,U,43809,999,41428,.27543969E-3,.5306E-4,0
GLOBAL-2,2018-099BG,2026-06-29T13:03:00.814752,15.08742375,.0007649,97.3548,216.5432,108.7840,251.4220,0,U,43812,999,41377,.16854E-3,.2587E-4,0
SEAHAWK-1,2018-099BQ,2026-06-28T15:14:20.523264,15.22986510,.00065794,97.3956,231.9465,265.2529,94.7956,0,U,43820,999,41427,.3548748E-3,.8278E-4,0
SAUDISAT 5A,2018-102A,2026-06-29T12:59:08.003904,15.28172906,.0011284,97.3066,241.8841,91.8054,268.4478,0,U,43831,999,41756,.1984E-3,.5384E-4,0
SAUDISAT 5B,2018-102C,2026-06-29T11:49:02.446752,15.28422864,.0011992,97.3175,244.9285,93.6209,266.6403,0,U,43833,999,41767,.19009E-3,.5196E-4,0
ISAT,2018-111D,2026-06-29T07:12:33.886080,15.67554437,.0004246,97.5871,116.4725,161.8911,198.2501,0,U,43879,999,41306,.92203E-3,.101083E-2,0
UWE-4,2018-111E,2026-06-29T07:33:36.402624,15.46866057,.0004281,97.5854,109.2707,275.7537,84.3224,0,U,43880,999,41265,.5622E-3,.28228E-3,0
D-STAR ONE (SPARROW),2018-111F,2026-06-28T19:30:24.789888,15.78181643,.00051986,97.6099,121.7877,134.7870,225.3820,0,U,43881,999,41320,.9919147E-3,.172104E-2,0
JILIN-1 09,2019-005B,2026-06-29T13:14:32.047584,15.20618278,.0003459,97.4749,275.4090,69.5020,290.6587,0,U,43943,999,41102,.2124E-3,.4589E-4,0
JILIN-1 10,2019-005E,2026-06-29T12:31:08.713632,15.25850185,.0007087,97.4797,279.3264,226.6615,133.4033,0,U,43946,999,41119,.20871E-3,.5271E-4,0
EGYPTSAT-A (MISRSAT-A),2019-008A,2026-06-29T12:17:33.315360,14.72321444,.0001539,98.0196,245.1080,97.7380,262.4002,0,U,44047,999,39505,.11402E-3,.671E-5,0
EMISAT,2019-018A,2026-06-29T11:32:58.981344,14.43643680,.0018328,98.4648,239.2142,177.1438,182.9860,0,U,44078,999,38183,.14783E-3,.458E-5,0
JILIN-1 GAOFEN 3A,2019-032C,2026-06-29T12:47:49.623936,15.32896038,.0005717,44.9754,288.9765,359.5594,0.5284,0,U,44312,999,38973,.29766E-3,.9346E-4,0
WT 1B,2019-032G,2026-06-29T11:54:08.219808,15.27423805,.0010012,44.9708,353.7428,309.9988,50.0015,0,U,44316,999,38896,.48422E-3,.12986E-3,0
PROX-1,2019-036A,2026-06-28T21:43:08.792832,14.90892987,.00055219,23.9961,35.9614,169.9714,190.0896,0,U,44339,999,37522,.12281426E-2,.12704E-3,0
NPSAT1,2019-036B,2026-06-28T23:01:51.765888,14.74679425,.00071404,23.9973,141.0772,346.4007,13.6296,0,U,44340,999,37423,.74696219E-3,.5347E-4,0
